{
    "links": {
        "self": "http://www.neowsapp.com/rest/v1/neo/3838077?api_key=iIulBulltgU6a56xZRHN4H3l9WmuAYTsLGpBGhQ2"
    },
    "id": "3838077",
    "neo_reference_id": "3838077",
    "name": "(2019 BA5)",
    "designation": "2019 BA5",
    "nasa_jpl_url": "http://ssd.jpl.nasa.gov/sbdb.cgi?sstr=3838077",
    "absolute_magnitude_h": 25.2,
    "estimated_diameter": {
        "kilometers": {
            "estimated_diameter_min": 0.0242412481,
            "estimated_diameter_max": 0.0542050786
        },
        "meters": {
            "estimated_diameter_min": 24.2412481101,
            "estimated_diameter_max": 54.2050786336
        },
        "miles": {
            "estimated_diameter_min": 0.0150628086,
            "estimated_diameter_max": 0.0336814639
        },
        "feet": {
            "estimated_diameter_min": 79.5316564495,
            "estimated_diameter_max": 177.8381901842
        }
    },
    "is_potentially_hazardous_asteroid": false,
    "close_approach_data": [
        {
            "close_approach_date": "2019-02-08",
            "close_approach_date_full": "2019-Feb-08 01:36",
            "epoch_date_close_approach": 1549589760000,
            "relative_velocity": {
                "kilometers_per_second": "9.1497744892",
                "kilometers_per_hour": "32939.1881610998",
                "miles_per_hour": "20467.1305548789"
            },
            "miss_distance": {
                "astronomical": "0.035669069",
                "lunar": "13.875267841",
                "kilometers": "5336016.74728303",
                "miles": "3315647.058164614"
            },
            "orbiting_body": "Earth"
        },
        {
            "close_approach_date": "2022-01-13",
            "close_approach_date_full": "2022-Jan-13 12:28",
            "epoch_date_close_approach": 1642076880000,
            "relative_velocity": {
                "kilometers_per_second": "16.8544624523",
                "kilometers_per_hour": "60676.0648284557",
                "miles_per_hour": "37701.747059659"
            },
            "miss_distance": {
                "astronomical": "0.2910332691",
                "lunar": "113.2119416799",
                "kilometers": "43537957.156496817",
                "miles": "27053232.1020053946"
            },
            "orbiting_body": "Earth"
        }
    ],
    "orbital_data": {
        "orbit_id": "6",
        "orbit_determination_date": "2019-02-14 07:04:53",
        "first_observation_date": "2019-01-30",
        "last_observation_date": "2019-02-12",
        "data_arc_in_days": 13,
        "observations_used": 90,
        "orbit_uncertainty": "8",
        "minimum_orbit_intersection": ".0203323",
        "jupiter_tisserand_invariant": "3.586",
        "epoch_osculation": "2458518.5",
        "eccentricity": ".5213911407879672",
        "semi_major_axis": "2.065226521274973",
        "inclination": "7.205771456513226",
        "ascending_node_longitude": "138.7496171702016",
        "orbital_period": "1084.051630995495",
        "perihelion_distance": ".9884357093618497",
        "perihelion_argument": "22.76240612989844",
        "aphelion_distance": "3.142017333188096",
        "perihelion_time": "2458540.127895031567",
        "mean_anomaly": "352.8176463290645",
        "mean_motion": ".3320875036822818",
        "equinox": "J2000",
        "orbit_class": {
            "orbit_class_type": "APO",
            "orbit_class_description": "Near-Earth asteroid orbits which cross the Earth’s orbit similar to that of 1862 Apollo",
            "orbit_class_range": "a (semi-major axis) > 1.0 AU; q (perihelion) < 1.017 AU"
        }
    },
    "is_sentry_object": false
}